{"type": "FeatureCollection", "features": [ {"type": "Feature", "properties": {"norad_id": 33980, "name": "COSMOS 2251 DEB", "group": "cosmos-2251-debris", "lat": 16.937937825730113, "lon": 39.38931621968084, "alt_km": 715.9739309561865, "timestamp": "2025-12-25T20:42:39.080939+00:00", "meta": {"OBJECT_NAME": "COSMOS 2251 DEB", "OBJECT_ID": "1993-036FP", "EPOCH": "2025-12-25T06:08:42.172224", "MEAN_MOTION": 14.58718052, "ECCENTRICITY": 0.00279073, "INCLINATION": 74.0207, "RA_OF_ASC_NODE": 35.5393, "ARG_OF_PERICENTER": 178.4133, "MEAN_ANOMALY": 253.6414, "EPHEMERIS_TYPE": 0, "CLASSIFICATION_TYPE": "U", "NORAD_CAT_ID": 33980, "ELEMENT_SET_NO": 999, "REV_AT_EPOCH": 88977, "BSTAR": 0.0005746528, "MEAN_MOTION_DOT": 2.667e-05, "MEAN_MOTION_DDOT": 0}, "tle": {"line1": "1 33980U 93036FP  25359.25604366  .00002667  00000+0  57465-3 0  9990", "line2": "2 33980  74.0207  35.5393 0027907 178.4133 253.6414 14.58718052889770"}}, "geometry": {"type": "Point", "coordinates": [39.38931621968084, 16.937937825730113]}}, {"type": "Feature", "properties": {"norad_id": 33982, "name": "COSMOS 2251 DEB", "group": "cosmos-2251-debris", "lat": -52.17834441157707, "lon": -46.65183789113506, "alt_km": 681.1148118903484, "timestamp": "2025-12-25T20:42:39.080949+00:00", "meta": {"OBJECT_NAME": "COSMOS 2251 DEB", "OBJECT_ID": "1993-036FR", "EPOCH": "2025-12-24T23:50:20.580864", "MEAN_MOTION": 14.60266747, "ECCENTRICITY": 0.0075514, "INCLINATION": 74.0713, "RA_OF_ASC_NODE": 336.5898, "ARG_OF_PERICENTER": 17.6635, "MEAN_ANOMALY": 38.1055, "EPHEMERIS_TYPE": 0, "CLASSIFICATION_TYPE": "U", "NORAD_CAT_ID": 33982, "ELEMENT_SET_NO": 999, "REV_AT_EPOCH": 89338, "BSTAR": 0.00060605609, "MEAN_MOTION_DOT": 3.015e-05, "MEAN_MOTION_DDOT": 0}, "tle": {"line1": "1 33982U 93036FR  25358.99329376  .00003015  00000+0  60606-3 0  9996", "line2": "2 33982  74.0713 336.5898 0075514  17.6635  38.1055 14.60266747893387"}}, "geometry": {"type": "Point", "coordinates": [-46.65183789113506, -52.17834441157707]}}, {"type": "Feature", "properties": {"norad_id": 33983, "name": "COSMOS 2251 DEB", "group": "cosmos-2251-debris", "lat": 31.486876657443204, "lon": -67.69014127655157, "alt_km": 717.767513295451, "timestamp": "2025-12-25T20:42:39.080959+00:00", "meta": {"OBJECT_NAME": "COSMOS 2251 DEB", "OBJECT_ID": "1993-036FS", "EPOCH": "2025-12-25T02:39:29.856672", "MEAN_MOTION": 14.5072127, "ECCENTRICITY": 0.00211189, "INCLINATION": 74.0505, "RA_OF_ASC_NODE": 123.81, "ARG_OF_PERICENTER": 225.6515, "MEAN_ANOMALY": 314.8003, "EPHEMERIS_TYPE": 0, "CLASSIFICATION_TYPE": "U", "NORAD_CAT_ID": 33983, "ELEMENT_SET_NO": 999, "REV_AT_EPOCH": 88808, "BSTAR": 0.0006226567, "MEAN_MOTION_DOT": 2.428e-05, "MEAN_MOTION_DDOT": 0}, "tle": {"line1": "1 33983U 93036FS  25359.11076223  .00002428  00000+0  62266-3 0  9993", "line2": "2 33983  74.0505 123.8100 0021118 225.6515 314.8003 14.50721270888083"}}, "geometry": {"type": "Point", "coordinates": [-67.69014127655157, 31.486876657443204]}}, {"type": "Feature", "properties": {"norad_id": 33984, "name": "COSMOS 2251 DEB", "group": "cosmos-2251-debris", "lat": -73.14086492968656, "lon": -109.36689635231497, "alt_km": 687.0601927136822, "timestamp": "2025-12-25T20:42:39.080969+00:00", "meta": {"OBJECT_NAME": "COSMOS 2251 DEB", "OBJECT_ID": "1993-036FT", "EPOCH": "2025-12-25T06:53:49.269984", "MEAN_MOTION": 14.66469528, "ECCENTRICITY": 0.00224353, "INCLINATION": 74.0098, "RA_OF_ASC_NODE": 322.8704, "ARG_OF_PERICENTER": 157.1432, "MEAN_ANOMALY": 320.641, "EPHEMERIS_TYPE": 0, "CLASSIFICATION_TYPE": "U", "NORAD_CAT_ID": 33984, "ELEMENT_SET_NO": 999, "REV_AT_EPOCH": 89250, "BSTAR": 0.00089920155, "MEAN_MOTION_DOT": 4.97e-05, "MEAN_MOTION_DDOT": 0}, "tle": {"line1": "1 33984U 93036FT  25359.28737581  .00004970  00000+0  89920-3 0  9993", "line2": "2 33984  74.0098 322.8704 0022435 157.1432 320.6410 14.66469528892503"}}, "geometry": {"type": "Point", "coordinates": [-109.36689635231497, -73.14086492968656]}}, {"type": "Feature", "properties": {"norad_id": 33986, "name": "COSMOS 2251 DEB", "group": "cosmos-2251-debris", "lat": -73.85453074210936, "lon": 179.69737416796565, "alt_km": 749.7865554179552, "timestamp": "2025-12-25T20:42:39.080979+00:00", "meta": {"OBJECT_NAME": "COSMOS 2251 DEB", "OBJECT_ID": "1993-036FV", "EPOCH": "2025-12-24T20:26:35.700576", "MEAN_MOTION": 14.43260292, "ECCENTRICITY": 0.00410855, "INCLINATION": 74.0366, "RA_OF_ASC_NODE": 280.1744, "ARG_OF_PERICENTER": 350.3243, "MEAN_ANOMALY": 66.1991, "EPHEMERIS_TYPE": 0, "CLASSIFICATION_TYPE": "U", "NORAD_CAT_ID": 33986, "ELEMENT_SET_NO": 999, "REV_AT_EPOCH": 88203, "BSTAR": 0.00070852763, "MEAN_MOTION_DOT": 2.383e-05, "MEAN_MOTION_DDOT": 0}, "tle": {"line1": "1 33986U 93036FV  25358.85180209  .00002383  00000+0  70853-3 0  9997", "line2": "2 33986  74.0366 280.1744 0041085 350.3243  66.1991 14.43260292882037"}}, "geometry": {"type": "Point", "coordinates": [179.69737416796565, -73.85453074210936]}}, {"type": "Feature", "properties": {"norad_id": 33990, "name": "COSMOS 2251 DEB", "group": "cosmos-2251-debris", "lat": -52.26454223159771, "lon": 106.79639203749359, "alt_km": 867.3663855699779, "timestamp": "2025-12-25T20:42:39.080990+00:00", "meta": {"OBJECT_NAME": "COSMOS 2251 DEB", "OBJECT_ID": "1993-036FZ", "EPOCH": "2025-12-25T00:01:51.787776", "MEAN_MOTION": 13.50014724, "ECCENTRICITY": 0.04073116, "INCLINATION": 73.9283, "RA_OF_ASC_NODE": 266.309, "ARG_OF_PERICENTER": 284.411, "MEAN_ANOMALY": 88.1202, "EPHEMERIS_TYPE": 0, "CLASSIFICATION_TYPE": "U", "NORAD_CAT_ID": 33990, "ELEMENT_SET_NO": 999, "REV_AT_EPOCH": 82895, "BSTAR": 0.00076126859, "MEAN_MOTION_DOT": 7.87e-06, "MEAN_MOTION_DDOT": 0}, "tle": {"line1": "1 33990U 93036FZ  25359.00129384  .00000787  00000+0  76127-3 0  9993", "line2": "2 33990  73.9283 266.3090 0407311 284.4110  88.1202 13.50014724828950"}}, "geometry": {"type": "Point", "coordinates": [106.79639203749359, -52.26454223159771]}}, {"type": "Feature", "properties": {"norad_id": 33992, "name": "COSMOS 2251 DEB", "group": "cosmos-2251-debris", "lat": 46.520409231323164, "lon": 114.83983360747399, "alt_km": 652.579489916111, "timestamp": "2025-12-25T20:42:39.081000+00:00", "meta": {"OBJECT_NAME": "COSMOS 2251 DEB", "OBJECT_ID": "1993-036GB", "EPOCH": "2025-12-25T05:40:42.253824", "MEAN_MOTION": 14.66314545, "ECCENTRICITY": 0.00518977, "INCLINATION": 74.0248, "RA_OF_ASC_NODE": 313.6306, "ARG_OF_PERICENTER": 67.6583, "MEAN_ANOMALY": 357.7396, "EPHEMERIS_TYPE": 0, "CLASSIFICATION_TYPE": "U", "NORAD_CAT_ID": 33992, "ELEMENT_SET_NO": 999, "REV_AT_EPOCH": 89308, "BSTAR": 0.00088937337, "MEAN_MOTION_DOT": 4.979e-05, "MEAN_MOTION_DDOT": 0}, "tle": {"line1": "1 33992U 93036GB  25359.23660016  .00004979  00000+0  88937-3 0  9991", "line2": "2 33992  74.0248 313.6306 0051897  67.6583 357.7396 14.66314545893087"}}, "geometry": {"type": "Point", "coordinates": [114.83983360747399, 46.520409231323164]}}, {"type": "Feature", "properties": {"norad_id": 33994, "name": "COSMOS 2251 DEB", "group": "cosmos-2251-debris", "lat": -55.708238188642845, "lon": 141.31525240930296, "alt_km": 744.0464908482954, "timestamp": "2025-12-25T20:42:39.081010+00:00", "meta": {"OBJECT_NAME": "COSMOS 2251 DEB", "OBJECT_ID": "1993-036GD", "EPOCH": "2025-12-24T22:11:28.247136", "MEAN_MOTION": 14.41222043, "ECCENTRICITY": 0.0024013, "INCLINATION": 74.0415, "RA_OF_ASC_NODE": 167.8609, "ARG_OF_PERICENTER": 300.1326, "MEAN_ANOMALY": 174.2657, "EPHEMERIS_TYPE": 0, "CLASSIFICATION_TYPE": "U", "NORAD_CAT_ID": 33994, "ELEMENT_SET_NO": 999, "REV_AT_EPOCH": 88595, "BSTAR": 0.00010035, "MEAN_MOTION_DOT": 2.98e-06, "MEAN_MOTION_DDOT": 0}, "tle": {"line1": "1 33994U 93036GD  25358.92463249  .00000298  00000+0  10035-3 0  9991", "line2": "2 33994  74.0415 167.8609 0024013 300.1326 174.2657 14.41222043885953"}}, "geometry": {"type": "Point", "coordinates": [141.31525240930296, -55.708238188642845]}}, {"type": "Feature", "properties": {"norad_id": 33995, "name": "COSMOS 2251 DEB", "group": "cosmos-2251-debris", "lat": 67.31126751303228, "lon": 138.46411955911387, "alt_km": 732.8008932890325, "timestamp": "2025-12-25T20:42:39.081020+00:00", "meta": {"OBJECT_NAME": "COSMOS 2251 DEB", "OBJECT_ID": "1993-036GE", "EPOCH": "2025-12-24T17:35:48.265728", "MEAN_MOTION": 14.34828474, "ECCENTRICITY": 0.00593083, "INCLINATION": 74.0615, "RA_OF_ASC_NODE": 97.4102, "ARG_OF_PERICENTER": 108.3943, "MEAN_ANOMALY": 252.3671, "EPHEMERIS_TYPE": 0, "CLASSIFICATION_TYPE": "U", "NORAD_CAT_ID": 33995, "ELEMENT_SET_NO": 999, "REV_AT_EPOCH": 87691, "BSTAR": 0.00082357332, "MEAN_MOTION_DOT": 2.36e-05, "MEAN_MOTION_DDOT": 0}, "tle": {"line1": "1 33995U 93036GE  25358.73319752  .00002360  00000+0  82357-3 0  9998", "line2": "2 33995  74.0615  97.4102 0059308 108.3943 252.3671 14.34828474876912"}}, "geometry": {"type": "Point", "coordinates": [138.46411955911387, 67.31126751303228]}}, {"type": "Feature", "properties": {"norad_id": 33999, "name": "COSMOS 2251 DEB", "group": "cosmos-2251-debris", "lat": 9.06133558941571, "lon": -152.76271141254497, "alt_km": 617.3785766981728, "timestamp": "2025-12-25T20:42:39.081030+00:00", "meta": {"OBJECT_NAME": "COSMOS 2251 DEB", "OBJECT_ID": "1993-036GJ", "EPOCH": "2025-12-24T23:37:47.292096", "MEAN_MOTION": 14.83593791, "ECCENTRICITY": 0.00444134, "INCLINATION": 73.9174, "RA_OF_ASC_NODE": 206.352, "ARG_OF_PERICENTER": 98.1174, "MEAN_ANOMALY": 262.5045, "EPHEMERIS_TYPE": 0, "CLASSIFICATION_TYPE": "U", "NORAD_CAT_ID": 33999, "ELEMENT_SET_NO": 999, "REV_AT_EPOCH": 89432, "BSTAR": 0.0012821266, "MEAN_MOTION_DOT": 0.00010737, "MEAN_MOTION_DDOT": 0}, "tle": {"line1": "1 33999U 93036GJ  25358.98457514  .00010737  00000+0  12821-2 0  9993", "line2": "2 33999  73.9174 206.3520 0044413  98.1174 262.5045 14.83593791894320"}}, "geometry": {"type": "Point", "coordinates": [-152.76271141254497, 9.06133558941571]}}]}